STARLINK-30612          
1 58106C 23161K   26089.06576389 -.00027684  00000+0 -93291-3 0   897
2 58106  53.1578  57.8758 0001214  93.4900 219.1351 15.30210622    19
STARLINK-30421          
1 58107C 23161L   26089.03034722 -.00014804  00000+0 -49893-3 0   894
2 58107  53.1583  58.0635 0001309  93.5859 354.7825 15.30199751    13
STARLINK-30611          
1 58108C 23161M   26089.02479167 -.00011001  00000+0 -37080-3 0   891
2 58108  53.1599  58.2975 0001371  89.1837 212.2553 15.30196358    12
STARLINK-30606          
1 58109C 23161N   26089.04284722 -.00005008  00000+0 -16877-3 0   896
2 58109  53.1594  70.9930 0001394  87.5094  60.7274 15.30197673    19
STARLINK-30596          
1 58110C 23161P   26088.84909722  .00035161  00000+0  11852-2 0   886
2 58110  53.1592  71.6407 0001333  95.1399 193.1636 15.30170986    13
STARLINK-30595          
1 58111C 23161Q   26088.97062500  .00012531  00000+0  42247-3 0   884
2 58111  53.1581  71.4680 0001337  90.6079 309.7855 15.30175356    16
STARLINK-30593          
1 58112C 23161R   26089.04631944 -.00013822  00000+0 -46585-3 0   894
2 58112  53.1586  71.0793 0001310  91.6201  23.4097 15.30199898    17
STARLINK-30353          
1 58113C 23161S   26088.98381944  .00021451  00000+0  72286-3 0   880
2 58113  53.1574  71.4744 0001434  90.4819 347.7155 15.30185482    15
STARLINK-30572          
1 58114C 23161T   26088.86437500  .00049990  00000+0  16846-2 0   885
2 58114  53.1586  71.8885 0001407  98.1723 111.4676 15.30170761    16
STARLINK-30580          
1 58115C 23161U   26089.06854167 -.00020875  00000+0 -70342-3 0   897
2 58115  53.1597  70.6371 0001411  93.2111 307.1644 15.30208139    18
STARLINK-30493          
1 58116C 23161V   26088.98451389  .00020802  00000+0  70088-3 0   881
2 58116  53.1577  71.4366 0001438  95.7208   3.7422 15.30191781    10
STARLINK-30601          
1 58117C 23161W   26089.05673611 -.00023339  00000+0 -78651-3 0   890
2 58117  53.1571  71.1685 0001323  89.7940  12.8476 15.30206460    16
STARLINK-30795          
1 58118C 23162A   26089.01368056 -.00070980  00000+0 -25723-2 0   897
2 58118  43.0008  17.3158 0001182 279.9647 310.8499 15.27596179    18
STARLINK-30765          
1 58119C 23162B   26089.01715278  .00023761  00000+0  88307-3 0   891
2 58119  43.0013  17.3076 0001396 280.1324 318.6384 15.26720870    12
STARLINK-30768          
1 58120C 23162C   26089.04493056 -.00157300  00000+0 -58441-2 0   897
2 58120  43.0011  17.0586 0001423 264.1800 172.2853 15.26820265    11
STARLINK-30799          
1 58121C 23162D   26089.04215278 -.00145310  00000+0 -54004-2 0   895
2 58121  43.0043  17.3177 0001566 259.7152  55.1707 15.26804025    17
STARLINK-30759          
1 58122C 23162E   26089.03729167  .00021694  00000+0  80618-3 0   899
2 58122  43.0011  17.1804 0001377 274.6673  85.8217 15.26724883    11
STARLINK-30781          
1 58123C 23162F   26089.03034722  .00027371  00000+0  99211-3 0   893
2 58123  43.0041  17.4958 0001629 269.9665 299.4240 15.27540709    19
STARLINK-30754          
1 58124C 23162G   26088.97340278 -.00103020  00000+0 -37300-2 0   889
2 58124  43.0036  17.8690 0001876 272.1071 315.4796 15.27642441    13
STARLINK-30766          
1 58125C 23162H   26089.05673611  .00036791  00000+0  13332-2 0   898
2 58125  43.0020  14.2936 0001424 266.9761 296.4177 15.27545928    10
STARLINK-30767          
1 58126C 23162J   26088.99145833  .00024015  00000+0  86937-3 0   888
2 58126  43.0008  14.6246 0001278 262.3915 315.7432 15.27583447    10
STARLINK-30790          
1 58127C 23162K   26089.07965278  .00054049  00000+0  28292-2 0   892
2 58127  43.0004  14.8509 0012454 181.0108 231.1550 15.14959652    13
STARLINK-30787          
1 58128C 23162L   26088.99284722  .00024805  00000+0  89869-3 0   885
2 58128  43.0010  14.6333 0001192 265.8815 312.8302 15.27556794    13
STARLINK-30756          
1 58129C 23162M   26089.03590278  .00026796  00000+0  97124-3 0   893
2 58129  43.0039  17.5673 0001552 266.7259 283.7517 15.27541483    19
STARLINK-30783          
1 58130C 23162N   26089.05256944 -.00157490  00000+0 -57054-2 0   891
2 58130  43.0014  14.2097 0001376 268.0164 314.9129 15.27650340    11
STARLINK-30757          
1 58131C 23162P   26089.05465278 -.00159750  00000+0 -57870-2 0   891
2 58131  43.0021  14.1476 0001473 264.1818 351.4436 15.27653113    19
STARLINK-30770          
1 58132C 23162Q   26088.98798611 -.00110890  00000+0 -40164-2 0   882
2 58132  43.0025  17.9100 0001580 259.0124 352.2981 15.27633729    16
STARLINK-30758          
1 58133C 23162R   26089.06715278  .00037585  00000+0  13618-2 0   893
2 58133  43.0016  14.1426 0001240 260.5968  35.5206 15.27549201    15
STARLINK-30761          
1 58134C 23162S   26088.97965278 -.00101660  00000+0 -36813-2 0   889
2 58134  43.0014  18.0103 0001579 257.5820 286.6106 15.27634792    15
STARLINK-30772          
1 58135C 23162T   26088.98520833  .00018325  00000+0  66391-3 0   883
2 58135  43.0034  17.7906 0001505 255.7994  43.8510 15.27559629    13
STARLINK-30776          
1 58136C 23162U   26089.07131944  .00114500  00000+0  38623-2 0   895
2 58136  42.9988  17.4257 0005379 228.1808 118.8168 15.29823424    18
STARLINK-30782          
1 58137C 23162V   26088.99006944  .00015797  00000+0  58715-3 0   889
2 58137  43.0036  17.8177 0001352 259.7917  43.5388 15.26721703    10
STARLINK-30769          
1 58138C 23162W   26089.04423611  .00025392  00000+0  92018-3 0   898
2 58138  43.0041  17.2323 0001285 251.5634 105.0609 15.27549107    12
STARLINK-30775          
1 58139C 23162X   26089.04701389 -.00150810  00000+0 -56033-2 0   892
2 58139  43.0012  17.0773 0001366 259.8394 168.8465 15.26815448    12
STARLINK-30780          
1 58140C 23162Y   26089.06506944 -.00171050  00000+0 -61974-2 0   895
2 58140  43.0038  17.2010 0001429 279.2809 156.6779 15.27652088    18
STARLINK-30802          
1 58150C 23166A   26089.06229167  .00039219  00000+0  13219-2 0   896
2 58150  53.1572 125.2843 0001328  91.2305 281.6553 15.30171373    15
STARLINK-30834          
1 58151C 23166B   26089.01784722  .00030331  00000+0  10225-2 0   895
2 58151  53.1574 125.3308 0001248  97.0416   7.7993 15.30169796    14
STARLINK-30833          
1 58152C 23166C   26089.04631944  .00040852  00000+0  13770-2 0   893
2 58152  53.1574 125.3352 0001204  91.2112 205.2760 15.30167809    15
STARLINK-30831          
1 58153C 23166D   26089.02340278  .00026032  00000+0  87752-3 0   895
2 58153  53.1581 125.2741 0001217  92.7711 170.4554 15.30173593    11
STARLINK-30797          
1 58154C 23166E   26088.84770833 -.00034161  00000+0 -11515-2 0   885
2 58154  53.1577 126.1491 0001262  88.5871 141.0291 15.30204049    12
STARLINK-30804          
1 58155C 23166F   26089.02270833  .00035576  00000+0  11992-2 0   891
2 58155  53.1573 125.3886 0001293  88.6246 112.6181 15.30169901    18
STARLINK-30784          
1 58156C 23166G   26089.05743056  .00039634  00000+0  13360-2 0   897
2 58156  53.1571 125.3216 0001234  95.1735 245.1124 15.30166932    15
STARLINK-30803          
1 58157C 23166H   26089.01784722  .00054297  00000+0  18299-2 0   897
2 58157  53.1587 125.2473 0001207  92.5824 157.4788 15.30166936    12
STARLINK-30829          
1 58158C 23166J   26088.99215278  .00031552  00000+0  10637-2 0   885
2 58158  53.1572 125.5651 0001202  94.1355 281.2425 15.30168720    17
STARLINK-30788          
1 58159C 23166K   26089.02756944  .00051308  00000+0  17286-2 0   890
2 58159  53.1575 125.3331 0001200  88.9595 156.5197 15.30177618    15
STARLINK-30779          
1 58160C 23166L   26089.03729167  .00028515  00000+0  96118-3 0   896
2 58160  53.1579 125.2421 0001068  91.5634 230.7684 15.30173752    17
STARLINK-30773          
1 58161C 23166M   26088.96923611  .00021098  00000+0  71123-3 0   885
2 58161  53.1594 125.3683 0001286  90.8229 303.6674 15.30174621    15
STARLINK-30816          
1 58162C 23166N   26089.07131944  .00025198  00000+0  84938-3 0   893
2 58162  53.1594 124.8779 0001284  91.1815 163.3994 15.30174236    17
STARLINK-30763          
1 58163C 23166P   26088.97618056  .00036666  00000+0  12360-2 0   886
2 58163  53.1571 112.8115 0001263  98.3691 313.9897 15.30167947    18
STARLINK-30815          
1 58164C 23166Q   26089.00395833  .00024273  00000+0  81861-3 0   892
2 58164  53.1589 125.2966 0001138 101.9257  89.0638 15.30158573    19
STARLINK-30814          
1 58165C 23166R   26089.01090278  .00030557  00000+0  10301-2 0   891
2 58165  53.1575 124.9433 0001253  96.4824 295.6103 15.30169046    15
STARLINK-30789          
1 58166C 23166S   26089.00465278  .00021898  00000+0  73818-3 0   898
2 58166  53.1592 125.2585 0001239  92.7245 119.5077 15.30174207    16
STARLINK-30811          
1 58167C 23166T   26089.07618056  .00030375  00000+0  10238-2 0   896
2 58167  53.1584 124.7087 0001290  94.4476 262.5304 15.30174389    14
STARLINK-30812          
1 58168C 23166U   26088.99006944  .00208410  00000+0  70287-2 0   880
2 58168  53.1579 125.0752 0001673  73.0286 186.6962 15.30065953    11
STARLINK-30771          
1 58169C 23166V   26089.05465278  .00014957  00000+0  50474-3 0   897
2 58169  53.1592 124.9223 0001390 100.2302  79.9414 15.30142659    11
STARLINK-30764          
1 58170C 23166W   26088.86437500 -.00015805  00000+0 -53280-3 0   886
2 58170  53.1594 125.7721 0001230  90.9982 137.8441 15.30193025    16
STARLINK-30752          
1 58171C 23166X   26088.85326389 -.00014260  00000+0 -48075-3 0   888
2 58171  53.1591 125.7802 0001053  88.4534  96.6024 15.30190844    17
STARLINK-30753          
1 58175C 23167A   26089.02340278 -.00119870  00000+0 -43409-2 0   895
2 58175  43.0033  28.6837 0001505 275.8203  86.1405 15.27644162    16
STARLINK-30824          
1 58176C 23167B   26089.03451389 -.00152770  00000+0 -55333-2 0   898
2 58176  43.0040  28.6675 0001505 262.4497 139.4693 15.27654237    17
